QIANFAN-25              
1 61558U 24185G   25341.88298742  .00000696  00000+0  41719-3 0  9993
2 61558  88.9810  78.7384 0008481 339.0705  21.0128 14.05902153 68824
QIANFAN-26              
1 61559U 24185H   25341.88283648  .00000445  00000+0  43187-3 0  9996
2 61559  88.9813  80.2738 0006348  43.7014 316.4654 13.77808689 68003
QIANFAN-27              
1 61560U 24185J   25341.91124490  .00000987  00000+0  39757-3 0  9990
2 61560  88.9806  77.5087 0005978 315.1515  44.9195 14.27323852 69478
QIANFAN-28              
1 61561U 24185K   25341.89579251  .00001573  00000+0  62859-3 0  9998
2 61561  88.9825  77.5134 0005293 314.7961  45.2803 14.28019454 69485
QIANFAN-29              
1 61562U 24185L   25341.92497599  .00000270  00000+0  39982-3 0  9991
2 61562  88.9790  81.8070 0011468  71.3149 288.9246 13.51008466 67143
QIANFAN-30              
1 61563U 24185M   25341.89616776  .00000210  00000+0  31134-3 0  9993
2 61563  88.9810  81.3335 0008786  60.8803 299.3226 13.49986924 67410
QIANFAN-31              
1 61564U 24185N   25341.89302900  .00000311  00000+0  41468-3 0  9998
2 61564  88.9794  81.1436 0008063  56.8818 303.3109 13.57963035 67504
QIANFAN-32              
1 61565U 24185P   25341.94137696  .00000279  00000+0  41561-3 0  9990
2 61565  88.9853  81.4616 0011108  81.7604 278.4806 13.50733329 67395
